[{"OBJECT_NAME":"STARLINK-5973","OBJECT_ID":"2023-083AS","EPOCH":"2026-03-09T22:00:01.999584","MEAN_MOTION":15.06658129,"ECCENTRICITY":0.00010999,"INCLINATION":43.0007,"RA_OF_ASC_NODE":67.3137,"ARG_OF_PERICENTER":323.5297,"MEAN_ANOMALY":164.4858,"EPHEMERIS_TYPE":0,"CLASSIFICATION_TYPE":"U","NORAD_CAT_ID":56916,"ELEMENT_SET_NO":999,"REV_AT_EPOCH":557,"BSTAR":0.0043231422,"MEAN_MOTION_DOT":0.00065619,"MEAN_MOTION_DDOT":0},{"OBJECT_NAME":"CZ-6A DEB","OBJECT_ID":"2024-140WE","EPOCH":"2026-03-09T15:35:26.811168","MEAN_MOTION":14.69407042,"ECCENTRICITY":0.0170896,"INCLINATION":89.1194,"RA_OF_ASC_NODE":289.5546,"ARG_OF_PERICENTER":162.1141,"MEAN_ANOMALY":198.6195,"EPHEMERIS_TYPE":0,"CLASSIFICATION_TYPE":"U","NORAD_CAT_ID":61365,"ELEMENT_SET_NO":999,"REV_AT_EPOCH":8091,"BSTAR":0.00023823,"MEAN_MOTION_DOT":1.788e-5,"MEAN_MOTION_DDOT":0}]
